     2.11           N: GPS NAV DATA                         RINEX VERSION / TYPE
teqc  2018Dec12     gpsops              20220429 01:04:07UTCPGM / RUN BY / DATE
Linux 2.6.32-573.12.1.x86_64|x86_64|gcc -static|Linux 64|=+ COMMENT
CHPI                                    MARKER NAME         COMMENT
41609M003                               MARKER NUMBER       COMMENT
4164613.9484 -4162456.9866 -2445028.7316                    COMMENT
                                                            COMMENT
This data is provided as a public service by NASA/JPL.      COMMENT
No warranty is expressed or implied regarding suitability   COMMENT
for use.  For further information, contact:                 COMMENT
Dave Stowers, NASA/JPL m/s 238-600                          COMMENT
4800 Oak Grove Drive, Pasadena CA 91109 USA                 COMMENT
                                                            END OF HEADER
16 22  4 28 20  0  0.0-4.961122758687D-04-3.524291969370D-12 0.000000000000D+00
    9.900000000000D+01 5.243750000000D+01 4.649836541499D-09-1.666801756481D+00
    2.618879079819D-06 1.275862846524D-02 2.527609467506D-06 5.153640344620D+03
    4.176000000000D+05 1.713633537292D-07 1.100963025609D+00-6.705522537231D-08
    9.693284382260D-01 3.270937500000D+02 7.278253690995D-01-8.284273644678D-09
    4.607334771129D-10 1.000000000000D+00 2.207000000000D+03 0.000000000000D+00
    2.000000000000D+00 0.000000000000D+00-1.024454832077D-08 9.900000000000D+01
    4.104180000000D+05 4.000000000000D+00
 8 22  4 28 20  0  0.0-6.583333015442D-05-1.591615728103D-12 0.000000000000D+00
    5.600000000000D+01-8.696875000000D+01 4.700552939755D-09-2.607966359170D+00
   -4.578381776810D-06 7.442970992997D-03 5.934387445450D-06 5.153754642487D+03
    4.176000000000D+05-1.899898052216D-07 2.037781319166D+00-1.396983861923D-07
    9.636451945932D-01 2.695312500000D+02 1.588914268771D-01-8.204984627687D-09
   -3.610864692722D-10 1.000000000000D+00 2.207000000000D+03 0.000000000000D+00
    2.000000000000D+00 0.000000000000D+00 5.122274160385D-09 5.600000000000D+01
    4.104180000000D+05 4.000000000000D+00
14 22  4 28 20  0  0.0-1.055020838976D-04-2.273736754432D-12 0.000000000000D+00
    1.160000000000D+02 5.437500000000D+01 5.111998649549D-09 2.091281756222D-01
    2.896413207054D-06 1.780106569640D-03 2.965331077576D-06 5.153653388977D+03
    4.176000000000D+05 3.166496753693D-08 1.049925058576D+00-2.793967723846D-08
    9.528655730073D-01 3.183437500000D+02 3.067625509841D+00-8.588929191947D-09
    3.521575259173D-10 1.000000000000D+00 2.207000000000D+03 0.000000000000D+00
    2.000000000000D+00 0.000000000000D+00-7.450580596924D-09 1.160000000000D+02
    4.104180000000D+05 4.000000000000D+00
11 22  4 28 20  0  0.0-3.237044438720D-05 5.911715561524D-12 0.000000000000D+00
    2.130000000000D+02 8.968750000000D+00 4.263749030833D-09-2.684130149023D+00
    3.911554813385D-07 3.197930054739D-04 1.252442598343D-05 5.153571105957D+03
    4.176000000000D+05-1.862645149231D-08-3.122180207589D+00 2.607703208923D-08
    9.630535802815D-01 1.378437500000D+02 2.853261673299D+00-7.836755003730D-09
    1.853648640478D-10 1.000000000000D+00 2.207000000000D+03 0.000000000000D+00
    2.000000000000D+00 6.300000000000D+01-8.847564458847D-09 9.810000000000D+02
    4.104180000000D+05 4.000000000000D+00
27 22  4 28 20  0  0.0 1.932177692652D-04 7.730704965070D-12 0.000000000000D+00
    1.300000000000D+01-9.506250000000D+01 4.504830501415D-09-2.587316718961D+00
   -5.105510354042D-06 1.053073653020D-02 5.995854735374D-06 5.153654619217D+03
    4.176000000000D+05 8.009374141693D-08 2.057815720399D+00-2.570450305939D-07
    9.723851397213D-01 2.698125000000D+02 6.730641190222D-01-8.092122783681D-09
   -3.014411276615D-10 1.000000000000D+00 2.207000000000D+03 0.000000000000D+00
    2.000000000000D+00 0.000000000000D+00 1.396983861923D-09 1.300000000000D+01
    4.104180000000D+05 4.000000000000D+00
 2 22  4 28 20  0  0.0-6.532585248351D-04-1.136868377216D-13 0.000000000000D+00
    8.800000000000D+01-2.309375000000D+01 4.158030341511D-09 1.631707187085D+00
   -1.510605216026D-06 2.045090042520D-02 1.266598701477D-05 5.153655441284D+03
    4.176000000000D+05 2.793967723846D-07 3.028241294519D+00-4.079192876816D-07
    9.660660387454D-01 1.331562500000D+02-1.421936916237D+00-7.661390556240D-09
    7.036007363663D-11 1.000000000000D+00 2.207000000000D+03 0.000000000000D+00
    2.000000000000D+00 0.000000000000D+00-1.769512891769D-08 8.800000000000D+01
    4.107480000000D+05 4.000000000000D+00
20 22  4 28 20  0  0.0 5.156137049198D-04-2.273736754432D-13 0.000000000000D+00
    2.100000000000D+01 5.396875000000D+01 5.182715880919D-09 2.501805406306D+00
    2.749264240265D-06 4.834960447624D-03 5.966052412987D-06 5.153555265427D+03
    4.176000000000D+05-5.960464477539D-08-2.287104048230D+00 1.862645149231D-08
    9.426706446676D-01 2.578750000000D+02-3.122775550879D+00-8.436779997180D-09
    2.925121843066D-10 1.000000000000D+00 2.207000000000D+03 0.000000000000D+00
    2.000000000000D+00 0.000000000000D+00-8.381903171539D-09 2.100000000000D+01
    4.111020000000D+05 4.000000000000D+00
28 22  4 28 20  0  0.0 3.660540096462D-04-5.115907697473D-12 0.000000000000D+00
    1.050000000000D+02 5.050000000000D+01 4.660194115791D-09-2.136092269709D+00
    3.047287464142D-06 1.661056047305D-02 2.613291144371D-06 5.153681825638D+03
    4.176000000000D+05 1.061707735062D-07 1.104412266061D+00 2.849847078323D-07
    9.684896200172D-01 3.305000000000D+02-1.280742001211D+00-8.196769999800D-09
    3.475144753728D-10 1.000000000000D+00 2.207000000000D+03 0.000000000000D+00
    2.000000000000D+00 6.300000000000D+01-1.117587089539D-08 1.050000000000D+02
    4.135980000000D+05 4.000000000000D+00
 5 22  4 28 20  0  0.0-7.995497435331D-05-1.364242052659D-12 0.000000000000D+00
    1.510000000000D+02 4.315625000000D+01 4.839487298357D-09-2.139240484044D+00
    2.259388566017D-06 5.931074614637D-03 5.071982741356D-06 5.153702526093D+03
    4.176000000000D+05 5.587935447693D-08-2.171742293007D+00-6.519258022308D-08
    9.602965546289D-01 2.820312500000D+02 1.013931632814D+00-8.220342410257D-09
    3.132273328900D-10 1.000000000000D+00 2.207000000000D+03 0.000000000000D+00
    2.000000000000D+00 0.000000000000D+00-1.117587089539D-08 1.510000000000D+02
    4.154160000000D+05 4.000000000000D+00
17 22  4 28 20  0  0.0 6.061079911888D-04 4.661160346586D-12 0.000000000000D+00
    3.500000000000D+01-9.240625000000D+01 4.299107646518D-09-2.658566550894D+00
   -4.611909389496D-06 1.352000271436D-02 6.914138793945D-06 5.153541242599D+03
    4.176000000000D+05 1.601874828339D-07 2.120815923216D+00 2.197921276093D-07
    9.788911635919D-01 2.517187500000D+02-1.495275043247D+00-7.825683113970D-09
   -3.310852195998D-10 1.000000000000D+00 2.207000000000D+03 0.000000000000D+00
    2.000000000000D+00 0.000000000000D+00-1.117587089539D-08 3.500000000000D+01
    4.162980000000D+05 4.000000000000D+00
14 22  4 28 22  0  0.0-1.055188477039D-04-2.273736754432D-12 0.000000000000D+00
    1.170000000000D+02 6.531250000000D+01 5.001636909682D-09 1.258699366018D+00
    3.321096301079D-06 1.781185739674D-03 2.928078174591D-06 5.153656328201D+03
    4.248000000000D+05 1.676380634308D-08 1.049863646738D+00 3.539025783539D-08
    9.528681930935D-01 3.195312500000D+02 3.068250614737D+00-8.536784162755D-09
    3.221562762449D-10 1.000000000000D+00 2.207000000000D+03 0.000000000000D+00
    2.000000000000D+00 0.000000000000D+00-7.450580596924D-09 1.170000000000D+02
    4.176180000000D+05 4.000000000000D+00
 7 22  4 28 22  0  0.0 3.213286399841D-04 7.958078640513D-13 0.000000000000D+00
    5.400000000000D+01 4.287500000000D+01 4.310893851747D-09 1.862414513269D+00
    2.156943082809D-06 1.597633550409D-02 1.223757863045D-05 5.153681213379D+03
    4.248000000000D+05-3.427267074585D-07-3.050058676901D-02-2.030283212662D-07
    9.513407149765D-01 1.410625000000D+02-2.274456776186D+00-7.954259898281D-09
    3.928735076157D-11 1.000000000000D+00 2.207000000000D+03 0.000000000000D+00
    2.000000000000D+00 0.000000000000D+00-1.117587089539D-08 5.400000000000D+01
    4.176180000000D+05 4.000000000000D+00
30 22  4 28 22  0  0.0-5.257832817733D-04-1.591615728103D-12 0.000000000000D+00
    6.300000000000D+01 5.487500000000D+01 4.671623163285D-09 1.873049405443D+00
    2.881512045860D-06 5.759227205999D-03 1.204386353493D-05 5.153787532806D+03
    4.248000000000D+05-8.195638656616D-08-1.845847126942D-02 7.450580596924D-09
    9.364935740192D-01 1.362812500000D+02-2.708210680302D+00-8.096408676491D-09
   -1.000041655749D-11 1.000000000000D+00 2.207000000000D+03 0.000000000000D+00
    2.000000000000D+00 0.000000000000D+00 3.725290298462D-09 6.300000000000D+01
    4.176180000000D+05 4.000000000000D+00
 9 22  4 28 22  0  0.0-3.405706956983D-04 2.728484105319D-12 0.000000000000D+00
    4.500000000000D+01-5.975000000000D+01 4.815914887900D-09-1.074277104525D+00
   -3.159046173096D-06 2.090262714773D-03 6.917864084244D-06 5.153577178955D+03
    4.248000000000D+05-5.029141902924D-08-1.102129047390D+00 1.676380634308D-08
    9.540312422249D-01 2.417500000000D+02 1.881269670867D+00-8.301417215920D-09
   -5.382367054335D-10 1.000000000000D+00 2.207000000000D+03 0.000000000000D+00
    2.000000000000D+00 0.000000000000D+00 1.396983861923D-09 4.500000000000D+01
    4.176180000000D+05 4.000000000000D+00
28 22  4 28 22  0  0.0 3.660176880658D-04-5.115907697473D-12 0.000000000000D+00
    1.060000000000D+02 4.828125000000D+01 4.773770275265D-09-1.085951021099D+00
    2.715736627579D-06 1.661056058947D-02 3.341585397720D-06 5.153680690765D+03
    4.248000000000D+05-2.719461917877D-07 1.104351101456D+00 6.332993507385D-08
    9.684904480289D-01 3.267187500000D+02-1.280705261486D+00-8.618573283886D-09
    4.164459180726D-10 1.000000000000D+00 2.207000000000D+03 0.000000000000D+00
    2.000000000000D+00 6.300000000000D+01-1.117587089539D-08 1.060000000000D+02
    4.176180000000D+05 4.000000000000D+00
